TRANSPORTER-12 OBJECT AZ
1 62656U 25009AZ  26068.71026235  .00016057  00000+0  54903-3 0  9991
2 62656  97.3981 151.9913 0000987  45.3581 314.7740 15.30349724 63792
STARLINK-32885          
1 62958U 25029L   26068.71543921  .00016195  00000+0  55770-3 0  9990
2 62958  53.1598 230.0554 0000888  83.3341 276.7760 15.30201455 61354
